site,stars,lat,long,zip,ratings
7 Stars Pizzeria,2.5,40.7415085,-74.0317307,7030,10
99 Cent Fresh Pizza,3.5,40.7517,-73.97432,10017,10
Abitino's Pizzeria,2.5,40.74813886,-73.97361875,10016,10
Angelo's Pizza,3.5,40.76381699,-73.98274209,10019,10
Bravo Kosher Downtown,2,40.7068655,-74.0135997,10006,10
Cafe Amore's,2.5,40.7159,-74.0098,10007,10
Da Vinci Pizza,3,40.7037506,-74.0097275,10041,10
Daddy Greens,4,40.68076,-73.92889,11233,10
Domino's Pizza,2.5,40.7882385,-73.9711075,10024,10
Domino's Pizza,2,40.7998142,-74.0078952,7047,10
Famous Fmiglia Pizzeria,1.5,40.7521896,-73.9934616,10123,10
Famous Original Ray's Pizza,2,40.7631751,-73.9815334,10019,10
Favia Pizza,2.5,40.71991,-74.0425099,7302,10
Garlic New York Pizza Bar,3.5,40.7451897,-73.9759369,10016,10
Giovanni,3,40.81942,-73.92714,10451,10
Joey's Pepperoni Pizza,3.5,40.7182503,-74.0031891,10013,10
Jojo's Pizza,4.5,40.6551208,-73.9161224,11212,10
Little Italy,3,40.8481407,-74.0265884,7660,10
Little Italy Pizza,3,40.75014,-73.9909799,10001,10
Love & Dough,3.5,40.70299421,-73.98745029,11201,10
Majesty Pizza & Grill,2,40.7216549,-73.9809494,10009,10
New Millenium Pizza,3.5,40.8241755,-73.9454584,10031,10
Patzeria Perfect Pizza,4,40.75946539,-73.98678571,10036,10
Regina's Pizza,4.5,40.74706,-73.98311,10016,10
Roma's Pizza,3.5,40.78036,-73.95327,10128,10
Rose & Joe's Italian Bakery,4,40.77521996,-73.91185284,11105,10
Sal's Little Italy,3.5,40.72050272,-73.99669114,10013,10
Salerno Pizza,3.5,40.767289,-73.922863,11102,10
SnAKS at Saks Fifth Avenue,3.5,40.75797,-73.97681,10022,10
Stadium Pizza,4,40.7072487,-74.1012726,7305,10
Two Grandpa's Pizza,4,40.8482018,-73.907608,10453,10
Annabel,4,40.765841,-73.987619,10019,11
Bella Italia Restaurant,4.5,40.7661781,-74.033699,7087,11
Don Antonio By Starita,4,40.762711,-73.986708,10019,11
Don Filippo Restaurant,3.5,40.77461,-73.95899,10021,11
Famous Famiglia Pizzeria,3,40.7523994,-73.9929123,10001,11
Gotham Pizza,3.5,40.76297047,-73.98559785,10019,11
Great Burrito,4,40.7428322,-73.9930115,10011,11
Milk 'N Honey NYC,3,40.7556156,-73.9803596,10036,11
Papa John's Pizza,3,40.7605214,-73.9074715,11377,11
Parkside,4,40.655949,-73.959599,11225,11
Pazzo Pizza & Restaurant,3,40.74892,-73.97253,10017,11
Pizza King,1,40.7305908,-74.0559769,7306,11
Pizzeria Uno,2.5,40.70536804,-74.00267029,10005,11
Romano's Pizzeria,2,40.718108,-74.083598,7304,11
World Famous Ray's Pizza,3,40.7394598,-73.9954828,10011,11
World Pie,3.5,40.6806091,-73.9970041,11231,11
3 Bros Pizza,3.5,40.76871,-73.92474,11102,12
99 Cent Fresh Pizza,4,40.7546387,-73.9873276,10018,12
Angies Cafe & Pizza,4,40.81153,-73.92707,10451,12
Bellini Pizza & Mediterranean,2.5,40.78317,-73.95102,10128,12
Cucina Bene,3,40.705956,-74.0099226,10005,12
Francesco's,3.5,40.68357,-73.99945,11231,12
Gruppo Ristoratori Italiani,4,40.74731,-73.99679,10001,12
Krispy Pizza,4,40.7132111,-74.0355606,7302,12
Little Italy Pizza,3.5,40.7502738,-73.9909354,10001,12
Luigi's Pizza,3,40.76555,-73.98342,10019,12
Luigi's Pizzeria,3,40.7784309,-73.9486313,10128,12
Martiniello's Pizzeria,3.5,40.7041702,-73.9073105,11385,12
Pizza Party Time,2,40.8334219,-74.0103221,7657,12
Pizzarra's Restaurant & Pizzeria,4.5,40.77637,-74.02571,7087,12
Sbarro,1,40.73552331,-74.02913821,7030,12
Urban Coalhouse Pizza + Bar,3.5,40.75335033,-74.02640931,7030,12
14th Street Pizza Place,2.5,40.73258,-73.98623,10003,13
21 Greenpoint,4,40.7299,-73.95994,11222,13
Basil,3.5,40.6701228,-73.9422803,11213,13
Cafe Viva,3.5,40.7954099,-73.9709,10025,13
Chuck E Cheese's,2.5,40.81023,-73.95276,10027,13
Como Pizza,4,40.8421936,-73.9394302,10032,13
Custom Fuel Pizza,4,40.8087844,-73.9520398,10027,13
Le Paddock,4,40.6529503,-73.9758835,11218,13
Lenny's Pizza,3.5,40.7414513,-73.9202194,11104,13
Luna Pizza,4,40.71324568,-73.9986511,10038,13
Luna Pizza & Pasta,2.5,40.7822,-74.01204,7093,13
Nassau Pizza & Restaurant,3,40.7259712,-73.9418564,11222,13
Otto Strada,3.5,40.7463763,-74.03094598,7030,13
Park Avenue Pizza Cafe,3,40.7794228,-74.0148773,7086,13
Park Luncheonette,3.5,40.7217368,-73.950612,11222,13
Percy's Pizza,4,40.7290688,-74.0015182,10012,13
Tony Boloney's,4,40.7378974,-74.0343764,7030,13
Buca di Beppo Italian Restaurant,3.5,40.75798,-73.98531,10036,14
CJ's Pizza Box,2.5,40.85171,-74.0446,7643,14
Joe's Pizzeria,3,40.65863,-73.98171,11215,14
Lombardi's Pizza,4,40.72164,-73.9957,10012,14
Michael's,3.5,40.7620314,-73.9764479,10019,14
Milkflower,4,40.7628961,-73.9207081,11106,14
Papa John's Pizza,2,40.73953,-73.92458,11104,14
Patsys Pizzeria,4.5,40.6818695,-73.976181,11217,14
Picasso Pizza,3,40.71031924,-74.01635296,10280,14
Roberta's Pizza,4,40.75451707,-73.976597,10169,14
Villa Pazzo,3,40.73236,-74.00377,10014,14
42nd Street Pizza,2.5,40.7619413,-74.0001028,10036,15
99 Cents Fresh Pizza,4,40.7264595,-73.9895782,10003,15
Cozzi Pizza,3,40.7037697,-73.9474869,11206,15
Crown Fried Chicken Pizza & Coffee Shop,2.5,40.69167,-73.94539,11216,15
Francesco's Pizzeria,2.5,40.73118,-74.00043,10012,15
Franklin Pizza,3,40.7296715,-73.9578094,11222,15
Grimaldi's,3.5,40.74123,-73.9937999,10010,15
La Pizza & La Pasta,4,40.71024193,-74.01244604,10006,15
La Traviata Pizzeria,3.5,40.77505,-73.98088,10023,15
Natoli's Deli,4.5,40.7950783,-74.0631638,7094,15
New Fresh Pizza,4.5,40.6506679,-73.95222966,11226,15
Nina's,3,40.7219316,-73.9417588,11222,15
Patsy's Pizzeria,3.5,40.73292,-73.99347,10003,15
Patsy's Pizzeria,3.5,40.778389,-73.9766388,10023,15
Pete's Place,3.5,40.6469612,-74.0229187,11220,15
Phil's Steaks,3.5,40.73648,-73.99076,10003,15
Pizza Hut,1.5,40.79638,-74.01093,7093,15
Pizza Moto,4.5,40.6746224,-74.0007999,11231,15
Plaza Cafeteria - Mount Sinai Hospital,4,40.7894478,-73.9527283,10029,15
St John's Pizza,3,40.6704753,-73.9316446,11213,15
Venice & Vinnie's,4,40.734169,-74.0807114,7306,15
99 Cents Mega Pizza,2,40.7988625,-73.9412384,10035,16
Artichoke Basille's Pizza,4,40.73199089,-73.98369177,10003,16
Bar Cyrk,4,40.71739,-74.0087,10013,16
Barano,4.5,40.71037,-73.96794,11249,16
Big Al's Chicago Style Pizza,3,40.7089577,-74.0116348,10006,16
Carlos Pizza,3.5,40.7045665,-73.9103926,11385,16
Columbus Gourmet Food,3,40.7774544,-73.9786453,10023,16
Company,3.5,40.74745,-74.00041,10001,16
East Side Brick Oven Pizza,3,40.7668083,-73.9625052,10065,16
Fratelli Brick Oven Pizzeria,3.5,40.76701,-73.95693,10021,16
Luzzo's,4,40.73052819,-73.98329138,10003,16
Mangiamo Pizza,4,40.6988869,-73.914444,11237,16
N Y C Fried Chicken & Pizza,1,40.6840401,-73.9120407,11207,16
Nocciola Pizzeria e Trattoria,3.5,40.7953199,-73.94505,10029,16
Palermo Ristorante & Pizzeria,4,40.79627,-74.003677,7047,16
Pino's La Forchetta Pizzeria,3.5,40.67133,-73.9777,11215,16
Pipitone Pizzeria,3.5,40.68973,-73.97885,11201,16
Pizza Hut,1.5,40.8159851,-73.9109533,10455,16
Pizza World,2,40.824981,-73.910183,10451,16
Two Boots Upper West Side,3,40.794354,-73.972445,10025,16
99 Cent Fresh Pizza,3.5,40.759481,-73.992591,10011,17
Ana Maria Pizza,2,40.7555389,-74.0468826,7307,17
Bella Pizza,3,40.767646,-73.920485,11102,17
Delenio,4,40.72641,-74.05019,7302,17
Domino's Pizza,2,40.6524391,-74.0060806,11232,17
Dozzino,3.5,40.7445488,-74.0357895,7030,17
Falafelo's Pizza & Deli,5,40.756669,-73.934534,11101,17
Koronet Pizza,4,40.84461,-73.9393,10032,17
La Trattoria,2.5,40.7515411,-73.9705963,10017,17
Little Italy Pizza,2.5,40.698115,-73.937771,11206,17
Little Italy Pizza & Deli,3.5,40.7275599,-74.00528,10014,17
Oggi Pizza Bar,4.5,40.6601537,-73.9802665,11215,17
Patsy's Pizzeria,3.5,40.7657987,-73.9575845,10065,17
Pie By The Pound,4,40.7330681,-73.9901305,10003,17
Ralph's Italian Restaurant & Pizzeria,3.5,40.83335,-74.0971647,7073,17
Rosario's,4.5,40.77499147,-73.9119817,11105,17
Abitino's Pizza,3,40.76448,-73.99172,10019,18
Dogao,4.5,40.79237,-74.01328,7093,18
Domino's Pizza,2.5,40.7552757,-73.9887619,10018,18
Helen's Pizza,3.5,40.7212067,-74.0456467,7302,18
Lexington Pizza Parlour,4,40.789283,-73.9487429,10029,18
Motorino,4,40.73039,-73.98381,10003,18
Taste of Italy,4,40.7688278,-73.9251073,11102,18
Tufino Pizzeria Napoletana,4,40.77398,-73.9081099,11105,18
Wild Park Slope,4,40.67828,-73.97936,11217,18
Anthony's Pizza & Restaurant,4,40.77479595,-74.02065765,7037,19
Gotham Pizza,3.5,40.74381,-74.00295,10011,19
Harlem Pizza Co.,4,40.80291,-73.95107,10026,19
Inatteso Pizzabar Casano,4,40.7056571,-74.0172056,10004,19
Munch Time Diner,3.5,40.8399606,-73.9168665,10452,19
Pie Pie Pizza,4,40.7989006,-73.9634628,10025,19
Sauce N Cheese,4,40.6625209,-73.939955,11203,19
Stella's Pizza,3,40.7430302,-74.00360584,10011,19
Uncle Paul's Pizza,3.5,40.75473712,-73.97687205,10017,19
Bomber's Stadium Pizza,2,40.8271141,-73.9246216,10451,20
Domino's Pizza,2,40.70215,-73.90391,11385,20
Kennedys Chicken Pizza & Grill,2,40.8344489,-73.9448973,10032,20
Pasha Pizza Pita,3.5,40.67761,-73.95895,11238,20
Pastafina,3.5,40.74189,-73.9811478,10016,20
Phil's Pizza,4,40.7291412,-74.0049973,10014,20
Pizza Beach,3,40.7755954,-73.95658959,10028,20
Planet Green,2.5,40.7399597,-73.9846573,10010,20
Bettolona,4,40.8141032,-73.9597766,10027,21
Bravo Pizza,3,40.7521,-73.98771,10018,21
Brick Oven Pizza 33,3.5,40.74513,-73.97835,10016,21
Chelsea Papaya,3.5,40.74417359,-73.99533358,10011,21
Dar 525,4.5,40.72308,-73.9452699,11222,21
Domino's Pizza,1.5,40.6869299,-73.99058,11201,21
Dough Boys Pizza,3.5,40.7438581,-73.9792886,10016,21
Farinella,2.5,40.7788918,-73.9812255,10023,21
Franks Pizzeria,5,40.78353,-74.03296,7047,21
G & J's Pizzeria,3.5,40.7817958,-73.9459533,10128,21
Italy Pizza,4,40.72761,-73.95266,11222,21
Pastafina Pizzeria,3,40.75255,-73.97338,10017,21
Paz Pizza & Restaurant,4,40.6494408,-74.013382,11220,21
Pizzeria Hoboken,3.5,40.74723069,-74.03571393,7030,21
Pizzeria Prezzemo,3.5,40.74509,-73.93435,11101,21
PN Wood Fired Pizza,4.5,40.74475,-73.98772,10001,21
Prince Street Pizza,4.5,40.72290877,-73.99448633,10012,21
Pronto Pizza,2.5,40.7097837,-74.0122122,10006,21
Rose's Pizza and Pasta,3.5,40.7516241,-73.9924959,10119,21
Sarge's Blvd Pizza,4,40.8357344,-73.9994381,7657,21
Sicily's Best Pizzeria,4.5,40.7052383,-73.9150925,11237,21
Skinny Pizza,2.5,40.7113914,-74.0150528,10281,21
99 Cents Fresh Slice Pizza,3,40.72133909,-73.98816182,10002,22
Basile's Pizza,3,40.73697897,-74.03082073,7030,22
Crown Fried Chicken & Pizza,2.5,40.6995888,-73.9159164,11237,22
Genova's Pizzeria & Restaurant,3,40.7421989,-74.0598602,7306,22
Gino's Pizza,3,40.65234,-73.95902,11226,22
Iggy's Pizzeria,3.5,40.72928,-73.98442,10003,22
Joey Pepperoni's Pizza,3,40.8160553,-73.918129,10455,22
Lenny's Pizza,3,40.66287,-73.95103,11225,22
Pizza On the Edge,3.5,40.829586,-73.9723511,7020,22
Bambino's Pizzeria,3.5,40.742981,-73.9825211,10016,23
Bruno's Catering & Pizza,3,40.7328137,-73.9808686,10009,23
Domino's Pizza,2.5,40.7220612,-73.9892807,10002,23
Domino's Pizza,2,40.7691985,-73.9547689,10021,23
Domino's Pizza,3,40.81187,-73.95439,10027,23
Exquisito,3,40.759429,-73.936482,11106,23
Fornino- Greenpoint,4,40.728949,-73.953999,11222,23
Fortunata's II,3,40.70177,-73.92332,11237,23
King Pizza & Pasta Number 3,3.5,40.6832619,-73.9651871,11238,23
Marchini Homestyle,4,40.73021,-73.91927,11378,23
Mozzarella Kosher,5,40.69979,-73.9539099,11208,23
My Pizza Stop,3,40.7789917,-74.0820389,7094,23
Patsy's Pizzeria,3.5,40.7503,-73.97209,10017,23
Pizza Villa,3,40.7697831,-74.0237225,7086,23
Pomodoro Pizza,2,40.70807,-74.01369,10005,23
Ralpho's Pizza,4.5,40.8394483,-74.0039607,7657,23
Rax's Pizza,3.5,40.6469803,-74.0081635,11220,23
Scott's Pizza Tours,5,40.7215118,-73.9957428,10012,23
Slice,2.5,40.7373199,-73.9972,10011,23
The Dirty Apron Restaurant & Bakery,4,40.6718717,-73.9334135,11213,23
Two Boots West Village,3.5,40.7366979,-74.0014999,10014,23
Two Boots Williamsburg,3.5,40.71697848,-73.95670424,11211,23
Carve,3.5,40.76020423,-73.98735685,10036,24
Domino's Pizza,1,40.6698112,-73.9082336,11212,24
Gino's Pizzeria,2.5,40.6604586,-73.9608298,11225,24
Gotham Pizza,3.5,40.7699799,-73.95172,10075,24
Jumbo Pizza Coffee Shop,3.5,40.82804522,-73.94893632,10031,24
Mike's Pizza,3.5,40.6553802,-73.9564972,11226,24
Pastafina,3,40.76633,-73.96536,10065,24
Table 87 Coal Oven Pizza,4,40.69121933,-73.99734497,11201,24
620 On Caton Pizzeria,3,40.64755,-73.97392,11218,25
Apicius,3.5,40.77516,-73.90366,11105,25
Domino's Pizza,2,40.79378,-73.94285,10029,25
Donna Pizza,3.5,40.8502007,-73.9960327,7650,25
Francesca's Pizza and Pasta,3,40.7817955,-73.9459534,10128,25
Happy Slices,3,40.73798933,-73.984952,10010,25
Lenny's Pizza,2.5,40.6509895,-73.948822,11226,25
Neil's Pizzeria,2.5,40.85015,-74.03222,7643,25
Nonno's Focacceria,2.5,40.75916768,-73.95254669,10044,25
Patsy's Pizzeria,3,40.76177,-73.96575,10022,25
Perfect Pizza,4.5,40.7935007,-74.0198399,7047,25
Puerto Plata Deli Pizzeria,1,40.6711617,-73.9138565,11212,25
Q Train Deli,2,40.649923,-73.962418,11226,25
Silvano Pizzeria,3.5,40.7168579,-73.9805298,10002,25
2 Bros Pizza,3.5,40.74435255,-73.99199244,10010,26
2 Bros Pizza,4,40.7568016,-73.9802399,10036,26
Angelo's Coal Oven Pizzeria,3.5,40.76484,-73.97801,10019,26
Charleston,3.5,40.7181519,-73.9576854,11249,26
City Slice,3.5,40.765419,-73.9908829,10019,26
Famous Original Ray's Pizza,2.5,40.78414,-73.97411,10024,26
Milly's Pizzeria,3.5,40.6990318,-73.9393692,11206,26
Paulie Gee's,4.5,40.72955,-73.95857,11222,26
Roebling Pizza,4,40.70848907,-73.96109407,11211,26
Sammy's House of BBQ,3.5,40.75821,-73.98833,10036,26
Tony Novante's Pizza & Wing Boss,3,40.77798,-74.01683,7087,26
Artichoke Basille's Pizza,3.5,40.68101077,-73.97718139,11217,27
Cafe De Novo,3,40.70812083,-74.01381102,10006,27
Claudine's,4,40.6812515,-73.9938812,11231,27
Clinton Square Pizza,4.5,40.7140447,-73.987204,10002,27
Domino's Pizza,2.5,40.73264,-73.99752,10011,27
Domino's Pizza,2.5,40.7804298,-73.9521637,10128,27
Flacoz Tacoz,2,40.737478,-73.980438,10010,27
Grande Pizza,3,40.73733,-74.03751,7030,27
Just Combo,3.5,40.7766275,-73.91088,11105,27
Lil' Frankie's,4,40.72363,-73.98856,10003,27
Piz-zetta,4.5,40.69128341,-73.99060292,11201,27
Rocky's Pizzeria,3,40.74442,-73.9765,10016,27
Slice,3,40.73734,-73.99719,10011,27
The Place Bar and Lounge,3,40.7278499,-73.9421799,11222,27
2 Bros Pizza,3.5,40.75475,-73.992,10018,28
Bella Donna Pizzeria,3.5,40.713459,-73.9106369,11378,28
Clinton Street Pizza,3.5,40.71979,-73.9846,10002,28
Delizia Uno Italian Eatery,3.5,40.7134502,-74.0083989,10007,28
Domino's Pizza,2,40.76648,-73.91251,11103,28
Donatos Pizza,3,40.7485799,-73.91298,11377,28
Famous Ben's Pizza,3,40.7249184,-74.0024414,10012,28
Lunetta Pizza & Restaurant,3.5,40.77532,-73.95631,10028,28
Nice Pizza,3.5,40.68746,-73.9571799,11238,28
PIzza King,2,40.7522,-73.98635,10018,28
Prince of Pizza,3,40.68594,-74.10251,7002,28
Rosario's At Willow,3,40.7516785,-74.0306702,7030,28
Stella's Pizzeria  and  Restaurant,3,40.719219,-74.0432379,7302,28
Three of Cups,3.5,40.72598,-73.98672,10003,28
Boston Pizza and Restaurant,4.5,40.75977,-73.92013,11103,29
Domino's Pizza,1.5,40.7083206,-73.9435196,11206,29
Domino's Pizza,1,40.8198318,-73.9135895,10455,29
Domino's Pizza,3,40.829,-73.94806,10031,29
Domino's Pizza,1,40.8358307,-73.9208679,10452,29
Emily,4,40.68351923,-73.96641323,11238,29
La Pizza Fresca Ristorante,3,40.73896,-73.98896,10003,29
Marabella Pizzeria Restaurant,3.5,40.74023359,-73.92386618,11104,29
Moustache,3.5,40.7282867,-73.9833544,10009,29
Otto Enoteca Pizzeria,3.5,40.73206054,-73.99619791,10003,29
Pitt Pizzeria,4.5,40.71862,-73.9826,10002,29
Pizza Hut,1.5,40.75268872,-73.90996133,11377,29
Shalom Chia Pizza,4,40.7160072,-73.9873657,10002,29
Theresa's Pizza,4,40.78224,-73.91406,11105,29
Va Bene Pizza & Pasta,3.5,40.7140541,-73.9873199,10002,29
Artichoke Basille's Pizza,3,40.70632,-73.9229299,11237,30
Domino's Pizza,2.5,40.7436295,-73.9949036,10011,30
Garlic Bob's Brick Oven Pizza,3,40.77212,-73.95865,10021,30
Papa John's Pizza,2,40.6914787,-73.9863968,11201,30
Pizza Mercato,3.5,40.73015,-73.9941599,10003,30
Princess Pizzeria,3.5,40.66602,-73.98876,11215,30
Tommy's Famous Cheesesteaks & Pizza,2.5,40.66909782,-73.98672588,11215,30
Tony's Pizza Spot,4.5,40.69047,-73.96013,11205,30
Danny's Pizzeria II,3,40.7077713,-73.9431076,11206,31
Domino's Pizza,2.5,40.777999,-73.9805833,10023,31
Domino's Pizza,2,40.7986099,-73.94116,10029,31
Domino's Pizza,3,40.8013,-73.96487,10025,31
GG's,4,40.72478,-73.98363,10009,31
Lex 54 Fried Chicken & Pizza,2,40.7592355,-73.9701843,10022,31
Paul's On Times Square,4,40.75522,-73.98539,10036,31
Pizza Hut,2,40.663353,-73.9576416,11225,31
Roll and Go Pizza,3,40.72210495,-74.00535093,10013,31
Sbarro,1.5,40.7193604,-74.0020523,10013,31
Village Pizza,4,40.7392502,-74.0031204,10014,31
Blue Seafood Bar,3.5,40.76685,-73.98615,10019,32
Davinci Pizza Restaurant,3,40.7036018,-74.0100937,10004,32
Domino's Pizza,3,40.85056,-73.9375,10033,32
Follia NYC,4,40.73499,-73.98573,10003,32
Liberty Deli & Pizza,3,40.7571983,-73.9765778,10017,32
South Slope Public House,4,40.66377,-73.98437,11215,32
The Best Pizza,3,40.7637097,-73.9885865,10019,32
Vic's Pizza,4,40.71662,-73.98938,10002,32
Wall Street Cafe,3,40.7076302,-74.0107422,10005,32
94 Corner Cafe,3,40.79309,-73.9726,10025,33
Bettola,3.5,40.7836799,-73.97816,10024,33
Il Porto,4,40.6974427,-73.9675197,11205,33
Italian Village Pizzeria,4,40.77274884,-73.95207108,10075,33
Little Italy Pizza,4.5,40.76197512,-73.98985181,10036,33
Mark Cafe,3.5,40.73996,-73.98508,10002,33
Porto By Antonio - Wood Burning Pizza & Pasta,4,40.80488345,-73.99344166,7047,33
San Vino's Pizzeria,1,40.74214,-74.05972,7306,33
Seven & Twenty Eight Pizza,1,40.747509,-73.9933472,10001,33
The Best Italian Pizza,3.5,40.81573,-73.91725,10455,33
Famous Anthony's Pizzeria,3,40.8375397,-73.9272919,10452,34
Joe's Pizza,4,40.7169,-73.9589699,11249,34
L.A. Pizza and Convienence,4,40.7298393,-73.9543762,11222,34
Little Caesars,3,40.7792087,-74.0156736,7087,34
Little Italy Pizza,3.5,40.74758,-73.98481,10016,34
Sam's Famous Pizza,3.5,40.79845,-73.94157,10029,34
Armonie,3.5,40.79979192,-73.94257535,10035,35
B Squared,4.5,40.7615509,-73.9906616,10036,35
Moustache Pitza,4,40.73235455,-74.00529382,10014,35
New Pizza On the Block,4,40.7893885,-74.0060048,7093,35
New Roma Pizza,2.5,40.7191315,-73.9876328,10002,35
Pizza Nova,3,40.8481499,-73.938,10033,35
Turkish Kitchen,4.5,40.8146338,-73.9916429,7010,35
Bread & Tulips,4,40.7420998,-73.9846115,10016,36
Crispy Pizza,3.5,40.7403612,-73.9985568,10011,36
Grand Avenue Pizza,3.5,40.76531779,-73.91842567,11103,36
La Tinajita Pizzeria Cubana,3.5,40.7843859,-74.0149635,7093,36
Speedy Romeo,4,40.68751548,-73.95987447,11238,36
Best Pizza,3.5,40.71555,-73.95339,11211,37
Brooklyn Pizza II,3.5,40.6494408,-73.9627914,11226,37
Burana Pizzeria,4.5,40.788539,-74.006116,7093,37
Cella Luna Pizzeria,3.5,40.78624,-74.01139,7093,37
Emmy Squared,4,40.71224,-73.95567,11211,37
La Bellezza,4,40.75568,-73.9721,10017,37
Mike's Pizza,4,40.75214,-73.934339,11101,37
My Pie,4.5,40.76079,-73.96941,10022,37
One Stop Pizza & Restaurant,4,40.7575417,-73.9314651,11106,37
Pizza Town,3.5,40.680252,-73.977844,11217,37
San Giuseppe,3.5,40.754055,-74.032892,7030,37
Shelter Pizza,3,40.7197055,-73.9607616,11249,37
Teresa's Brick Oven Pizza & Cafe,3.5,40.7601433,-73.9787216,10019,37
The Grotto Pizzeria & Ristorante,3.5,40.7057648,-74.0124359,10004,37
Bergenline Pizza,3.5,40.7709808,-74.0297775,7087,38
La Bella Stella,3,40.75428,-73.99885,10001,38
Pomodoro Pizzeria,3.5,40.7300453,-73.986412,10003,38
Roma Pizza,3,40.7469313,-73.9949027,10001,38
Rosario's Pizza,3.5,40.72159,-73.98857,10002,38
Soles Pizzeria,3.5,40.8068251,-74.0092326,7047,38
Viktoria Italian Restaurant,4.5,40.82191008,-73.91155423,10451,38
Domino's Pizza,1,40.8350906,-73.908226,10456,39
Ganni's Pizza,3.5,40.69428,-73.95783,11205,39
John's of Times Square,3.5,40.7581215,-73.9885788,10036,39
John's of Times Square - Jersey City,3,40.71444247,-74.03738596,7302,39
Sofia Pizza Shoppe,4.5,40.75674,-73.96431,10022,39
The Brick Fire Baked Pizza,3,40.7507705,-74.0269035,7030,39
Domino's Pizza,2.5,40.7723,-74.0304,7087,40
Dreamer's Pizza,3.5,40.78924,-73.9466,10029,40
Georgio's Pizzeria,3.5,40.7136574,-74.0895233,7305,40
Joe & Sal's Pizza,5,40.66944664,-73.95958667,11225,40
Joe's Pizza,2,40.7812979,-74.0222771,7087,40
Ma Ma Mia Frank's Famous,1,40.7240791,-74.0493469,7302,40
Pie Pie Pizza,2.5,40.8381761,-73.9379453,10032,40
Sal & Carmine's Pizza,3.5,40.7983115,-73.9694405,10025,40
The Big Red Tomato,3.5,40.8395,-73.98192,7024,40
Vecino Pizza Restaurant,3,40.71191,-73.96266,11211,40
Barleycorn Craft Bar & Grill,3.5,40.71358514,-74.00846121,10007,41
Domino's,1.5,40.73717,-74.03097,7030,41
Domino's Pizza,1.5,40.69306,-73.97336,11205,41
Two Boots Jersey City,3.5,40.720148,-74.043627,7302,41
Aperture,4,40.675033,-73.999706,11231,42
Domino's Pizza,1.5,40.71194,-73.99669,10038,42
Domino's Pizza,2.5,40.7443008,-73.9793549,10016,42
Green Cafe,3,40.76482,-73.97794,10019,42
L'isola,4,40.71609,-73.96286,11249,42
La Bella Mariella II,3.5,40.71385,-73.95563,11211,42
Pizza Pete's,3.5,40.7862219,-73.9726035,10024,42
Pizza Plus,2.5,40.7013064,-74.0132133,10004,42
The Best Roma Pizza,5,40.81641661,-73.91978802,10451,42
The Hudson Grill Pizza & Deli,4,40.7521286,-74.0377579,7087,42
Bodrum Mediterranean Restaurant,4,40.78921616,-73.97396006,10024,43
Douma Pizza & Subs,3.5,40.7224083,-73.9924469,10002,43
La Bella Pizza,3.5,40.74348,-73.97707,10016,43
La Bella Pizzeria,3.5,40.7423706,-73.9176025,11104,43
Libretto's Pizza,3.5,40.74728,-73.97722,10016,43
Prova Pizzabar,2.5,40.6551449,-74.0145982,10017,43
Sam's Pizza,3,40.76899,-74.03964,7087,43
Solo Pizza,3.5,40.739963,-73.984663,10010,43
Song E Napule,4.5,40.7280296,-74.0018334,10012,43
Steve's Pizza,3.5,40.70948,-74.012,10006,43
The Big Slice,2.5,40.73945,-73.99151,10011,43
Zia Maria,4,40.7454863,-73.9993392,10011,43
Zurilee Restaurant,4.5,40.65451474,-73.95953178,11226,43
Dino's Pizza & Pasta,3.5,40.76244816,-73.92597889,11106,44
Green Symphony,4,40.738083,-73.9968139,10011,44
Mariella Pizza,4,40.76558319,-73.98367787,10019,44
Napoli Pizza & Pasta,4,40.75718,-73.92686,11106,44
Nasa Pizza,3,40.8131656,-73.9418043,10037,44
Nicoletta,3.5,40.7297792,-73.98669183,10003,44
Pizza Hut,1.5,40.76129,-73.9829,10019,44
Stanton Pizza,4,40.72082,-73.98666,10002,44
Bean Y Vino,4,40.7909561,-73.9469905,10029,45
Brooklyn's Coal-Burning Brick-Oven Pizzeria,4,40.81318269,-73.98428882,7020,45
Don Pepi Pizza,3.5,40.7506946,-73.9923316,10121,45
Famous Original Ray's Pizza,3,40.7834282,-73.9479218,10128,45
La Vela Dining & Bar,4,40.7608925,-73.9980608,10036,45
Make And Bake,4.5,40.7932884,-73.94371351,10029,45
Mama's Pizzeria,3.5,40.80052,-73.96542,10025,45
Monte's,4,40.6775499,-73.98724,11215,45
Motorino,4,40.7104799,-73.96351,11211,45
Papa John's Pizza,3,40.83337,-74.09658,7073,45
Salt Pepper Ketchup Pizza and Grill,1,40.7608299,-73.9089813,11103,45
Tony's Pizza,4.5,40.6648483,-73.9232864,11212,45
Bellini Italian Restaurant,3.5,40.78457,-73.97317,10024,46
Famous Pizza,2.5,40.7389488,-74.0300674,7030,46
Filaga Pizzeria,3.5,40.74222,-74.00466,10011,46
Mama Mia 44 SW,4,40.75976,-73.99207,10036,46
Paparazzi Italiano,3,40.7218208,-74.0656281,7304,46
Pizza Hut Express,3,40.73529,-73.99285,10003,46
3J's Pizza,2,40.7751884,-74.0271301,7087,47
Claudio Pizzeria,3,40.7604,-73.99469,10036,47
Food Exchange,2.5,40.7529488,-73.9867706,10018,47
Freddie & Pepper's,4,40.779999,-73.980301,10023,47
Fresco By Scotto,3.5,40.75887459,-73.97443558,10022,47
Fresh Hot Pizza,3.5,40.8195,-73.9883957,7010,47
Metro Star Café,3.5,40.69248,-73.9871,11201,47
Pizza & Pita,3.5,40.7439194,-73.9742126,10016,47
Trattoria Zero Otto Nove,4,40.74085,-73.99166,10010,47
B X Pizza Bar,2.5,40.8295,-73.90821,10456,48
Casalinga Brick Oven Pizza,4,40.64852,-73.9787,11218,48
Donatello's Brick Oven Pizza,3.5,40.7558279,-73.9213419,11101,48
Mario's Pizzeria,3.5,40.6835387,-73.9900445,11217,48
Merilu Pizza Al Metro,4,40.76522,-73.98791,10019,48
Rosella's Pizzeria,3.5,40.71018,-74.00573,10038,48
Vinnie's Pizzeria,4,40.7762,-73.95331,10028,48
Cranberry,3,40.74883812,-73.93972132,11101,49
Domino's Pizza,2,40.66555,-73.95105,11225,49
Patrizia's,4,40.710939,-73.967504,11249,49
99 Cent Fresh Pizza,4,40.7644882,-73.98246,10019,50
Anna Maria Pizza,4,40.71796,-73.95746,11211,50
Century One Pizzeria,2,40.72451,-74.07003,7306,50
Cestra's Pizza II,3.5,40.8237572,-73.9086838,10451,50
Domino's Pizza,1.5,40.68022,-73.94211,11216,50
Italian Affair Pizzeria,3,40.7519844,-73.9150494,11101,50
Mike's Pizza,3,40.7385363,-73.98066452,10010,50
Napolis Pizzeria,1,40.8218498,-73.9392548,10039,50
Romano's Famous Pizza & Gyro,3,40.76132007,-73.92380227,11106,50
Tavola,4,40.755403,-73.994516,10018,50
Blake & Todd,3,40.75943429,-73.97378374,10022,51
Blue Eyes Restaurant,3.5,40.74159043,-74.02616293,7030,51
Chuck E. Cheese's,2.5,40.8082695,-74.0180511,7047,51
Fat Cat Pizza,4.5,40.7589015,-73.9260105,11106,51
KF Hester Street Pizza,2,40.71613598,-73.99171259,10002,51
PS Italian Bistro,3.5,40.7613,-73.9246,11103,51
Tasty Munchies Pizza,3,40.7185211,-73.9829178,10002,51
509 Pizzeria,5,40.8244187,-73.9093045,10451,52
Daniela Trattoria,3.5,40.75924,-73.988,10036,52
Domino's Pizza,2.5,40.7550697,-73.9654617,10022,52
Pizzcafe Express,1.5,40.77377,-73.9596,10021,52
Via Trenta Osteria & Wine Bar,4,40.764886,-73.916529,11103,52
Chai Pizza Sushi Cafe,3,40.697733,-73.959553,11205,53
Little Caesars,3,40.83576204,-73.92189503,10452,53
Mama Mia Chicken & Pizza,3,40.7956,-73.93593,10029,53
Sauce and Barrel,5,40.707999,-74.0142651,10006,53
Vezzo Thin Crust Pizza,4,40.74447,-73.9813099,10016,53
2 Bros Pizza,3.5,40.8050003,-73.9381638,10035,54
Di Mamma Pizza,1,40.6991692,-73.9130478,11237,54
Papa John's Pizza,1,40.68531,-74.10308,7002,54
Papa John's Pizza,1.5,40.7463329,-74.0489383,7306,54
Pizza 33 - 2nd Ave,4,40.72887,-73.98792,10009,54
Rocky's Brick Oven Pizza,3,40.73994,-74.00334,10014,54
Sac's Place,4,40.76289822,-73.92708555,11106,54
Smiling Pizza,3.5,40.6670645,-73.9813641,11215,54
A Slice of New York,2,40.7596207,-73.9882889,10036,55
Antika Pizzeria,4,40.7646599,-73.9172211,11106,55
Father & Son Pizzeria,4,40.79498,-74.0113499,7093,55
Serafina,3,40.77623508,-73.96234235,10075,55
Wrap & Roll Grill,3,40.7777902,-73.9519867,10028,55
El Nido's Pan Pizza,1,40.7637799,-73.98607,10019,56
King's Pizza of Harlem,4,40.8205004,-73.9367536,10039,56
Leo's Grandevous,3.5,40.73984,-74.036244,7030,56
99 Cents Fresh Pizza,3.5,40.73336672,-73.99963436,10014,57
Bari Pizzeria,4,40.7690399,-74.0318099,7087,57
Exclusive Pizza,3.5,40.8509482,-73.9389477,10033,57
Galaxia International,1,40.7190819,-74.0784683,7304,57
Lupita Pizzeria,5,40.8258209,-73.9387817,10039,57
Neapolitan Express,4,40.77978,-73.98195,10023,57
Cantina's Restaurant,2.5,40.759578,-73.920246,11103,58
Carmine's Pizza Factory,3,40.7275581,-74.0500107,7302,58
Fumo,4,40.82146541,-73.95061696,10031,58
Giovanni's Pizza,2.5,40.8352203,-73.9201584,10452,58
Mike Daddy's Pizza,3.5,40.6629189,-73.9847414,11215,58
Roma Pizza,2,40.71862862,-73.98830116,10002,58
Acqua At Peck Slip,3.5,40.7082567,-74.001797,10038,59
Cheesy Pizza,3,40.79716,-73.96948,10025,59
Stella 34 Trattoria,4,40.75038155,-73.98803253,10001,59
Bosa's Pizza of Harlem,5,40.80267,-73.93411,10035,60
Crown Fried Chicken & Pizza,1.5,40.6959,-73.942543,11206,60
Domino's Pizza,2.5,40.7372017,-74.0384369,7030,60
Ginos Pizzeria,3.5,40.6809807,-73.9755096,11217,60
Giovanni's Pizzeria & Restaurant,3.5,40.7435951,-74.0288391,7030,60
Mama's Pizza,3,40.71823,-73.98582,10002,60
Rocky's Bar & Restaurant,2.5,40.75436755,-73.99888595,10001,60
Serafina Meatpacking,3,40.73938034,-74.00651336,10014,60
Wanted,3,40.7095299,-74.0067902,10038,60
Da Mikele,4,40.718477,-74.004802,10013,61
Larry & Joe's Pizzeria,4,40.7308884,-74.0562668,7306,61
Serafina Harlem,3,40.810644,-73.9582755,10027,61
sLICe,3.5,40.74367,-73.95345,11101,61
Tex Mex Pizza Grill,3.5,40.7113304,-73.944603,11211,61
Tom's Delicious Pizza,2,40.765288,-74.03907653,7087,61
99 Cent Best & Fresh Pizza,3.5,40.7463303,-73.9934616,10001,62
Andre's Pizza,4,40.753342,-73.937162,11101,62
Fascati Pizza,3.5,40.69848,-73.99266,11201,62
Garden Pizza,2,40.7765388,-73.9499817,10028,62
Bronx Lala Inc Pizza,5,40.8276433,-73.92448587,10451,63
Coppola's West,3.5,40.783115,-73.9789374,10024,63
La Mia Cucina,3.5,40.79093,-74.05946,7094,63
Little Italy Pizza,3.5,40.78132134,-73.95446777,10028,63
Mamma Mia Pizza,2.5,40.78015,-73.946578,10128,63
One Twenty-Two,3.5,40.72707,-73.985288,10009,63
Saba's Pizza,3.5,40.77711,-73.95716,10028,63
Salerno Pizza,2,40.7278499,-74.06294,7306,63
Crown Fried Chicken & Pizza,2.5,40.721859,-74.0463409,7302,64
La Mia Pizza,3,40.774822,-73.953295,10075,64
Madison's Pizzeria,3,40.7039914,-73.9038706,11385,64
Napoli Pizzeria,3.5,40.662358,-73.908367,11212,64
Pizza 33,3,40.7448502,-73.9977798,10011,64
Brick Oven Pizza,2.5,40.655609,-73.942736,11203,65
Gnocco,3.5,40.72714,-73.9802799,10009,65
Napoli's Brick Oven Pizza,3.5,40.75072,-74.02717,7030,65
Obama Chicken & Pizza,2,40.8027191,-73.9523163,10026,65
Papa John's Pizza,2,40.6570854,-73.95298,11225,65
Ray's Pizza Restaurant,1,40.80704,-73.91756,10454,65
C & G House Of Pizza,4.5,40.8210411,-73.9127731,10451,66
Cafe 71,3,40.7782,-73.98235,10023,66
Harry's Italian,3.5,40.70755532,-74.00689817,10038,66
Pizzevia,4,40.70665423,-74.00265124,10302,66
Retro Pizza Cafe,4,40.75844032,-73.91793134,11103,66
Susano's Pizzeria & Restaurant,3.5,40.7032236,-73.9081187,11385,66
Victorias Pizza and Deli,2.5,40.67217,-73.98748,11215,66
B Side Pizza & Wine Bar,4.5,40.7637749,-73.9880524,10019,67
Cafe Roma,3.5,40.79779,-73.96787,10025,67
Grimaldi's,3.5,40.70256946,-73.99324761,11201,67
The Bistro,3.5,40.72734,-74.034336,7310,67
Mom's Pizzeria II,3,40.72058,-73.97855,10009,68
Peppino's Brick Oven Pizza & Restaurant,4.5,40.668221,-73.986936,11215,68
Pizza Ghor,2.5,40.8287582,-73.9490356,10031,68
Abitino Pizzeria & Restaurant,3.5,40.7553787,-73.9653015,10022,69
Don Giovanni Ristorante,3.5,40.75955,-73.9915,10036,69
Fiore's Pizza,4,40.72875,-74.0001,10012,69
Naples 45,3.5,40.75369915,-73.97625268,10166,69
Ribalta Pizza,4,40.7334346,-73.9916923,10003,69
Stromboli Pizza,3.5,40.72778,-73.9854299,10003,69
Wheated,4.5,40.6465969,-73.97049503,11218,69
F & F 99 Center Slice Pizza,3.5,40.72567576,-73.9779284,10009,70
Hanky's Pizzeria,4.5,40.84088,-73.98744,7650,70
Jiannetto's,4,40.75527,-73.9752199,10017,70
Lenin's Restaurant and Pizzeria,3.5,40.74162,-74.04563,7307,70
Villa Pizza,1.5,40.7562523,-73.9906845,10018,70
Pronto Pizzeria,4,40.76346,-73.90886,11103,71
Sabatino Pizzeria and Restaurant,2.5,40.7340088,-74.0424118,7310,71
Venice Restaurant & Pizzeria,3.5,40.8127372,-73.9074515,10455,71
Villa Pizza,2,40.7570235,-73.9889635,10036,71
Brother's Pizzeria,4,40.76957804,-73.93111368,11102,72
Justino's Pizzeria,3.5,40.76945,-73.98854,10019,72
Max,3.5,40.71755,-74.01013,10013,72
Papa John's Pizza,2,40.6816216,-73.9570923,11238,72
Papa John's Pizza,4,40.8138504,-73.9179611,10455,72
Billy's Pizza Pasta,3,40.6671317,-73.9564988,11225,73
Champion Pizza,5,40.71713186,-73.98029287,10002,73
Kennedy Fried Chicken,2.5,40.7503988,-73.9406468,11101,73
Napoli Pizza & Pasta,3.5,40.7605318,-73.9383051,11106,73
Crown Pizza & Chicken,2.5,40.6779289,-73.9109497,11233,74
Gino's Pizzeria,4,40.69417,-73.96073,11205,74
Le Gourmet,3.5,40.76552,-73.95802,10065,74
Michael John's Pizzeria,5,40.6574249,-74.0039749,11232,74
Pizza & Pasta Restaurant,3,40.704258,-73.9428558,11206,74
Rocco Pizza,3,40.6921387,-73.9458923,11216,74
Saba's Pizza,4,40.78329,-73.978,10024,74
Uncle Jimmy's Pizzeria,3.5,40.7459776,-73.9154465,11104,74
99 Cent Fresh Pizza Villa Cafe,3.5,40.75814,-73.99234,10036,75
Fornino,4,40.71755097,-73.95769538,11211,75
Lazzara's Pizza,3.5,40.754057,-73.989497,10018,75
Propizza,3,40.8079185,-73.9234085,10454,75
Tutti Matti,4,40.74465,-73.95375,11101,75
Mama Tina's Pizza,2.5,40.8206324,-73.943717,10030,76
Saluggi's East,4,40.71601,-73.9875,10002,76
10 Devoe,4.5,40.7130585,-73.9509888,11211,77
Famous Famiglia Pizzeria,2.5,40.7580338,-73.9889908,10036,77
10th Avenue Pizza & Cafe,3,40.74322509,-74.00751627,10001,78
Barilla Restaurants,3,40.76084551,-73.9793731,10104,78
Bella Vita,3.5,40.7570467,-73.9869185,10036,78
Chuck E Cheese's,2.5,40.68452665,-73.97721637,11222,78
In N Out Pizza,3,40.7526817,-73.9853516,10018,78
Little Caesars Pizza,2.5,40.6803207,-73.9439316,11216,78
Roma Pizzeria,4,40.80816,-74.00796,7047,78
Tony's Pizzeria of Nassau Ave,4.5,40.72529089,-73.94622602,11222,78
Farinella Bakery Pizza,3.5,40.763764,-73.967358,10065,79
Golden Pizza,4.5,40.8075104,-73.9194794,10454,79
Sottocasa Pizzeria- Boerum Hill,4.5,40.68838,-73.98895,11201,79
Vinnie's Pizzeria & Restaurant,3,40.70529,-74.0991899,7305,79
Domino's Pizza,1.5,40.6568489,-73.9305573,11203,80
Donna Bella,3,40.747,-74.04798,7307,80
Farid's Middle Eastern Grill Food & Pizza,2,40.7241337,-73.988065,10009,80
Eddie's NY Deli & Pizza,3,40.798114,-73.9404242,10029,81
Little Italy,3.5,40.7540127,-73.9797772,10017,81
Cafe Fiorello,3.5,40.77134,-73.9819051,10023,82
Campanello's,3,40.7669411,-74.0691299,7094,82
Craig D's Deli & Pizza,4,40.84555,-74.04218,7643,82
Kingston Pizza Kosher,2.5,40.6654399,-73.94242,11225,82
Little Caesars,2.5,40.6873894,-73.9178238,11221,82
Pizza Beach,3.5,40.72133,-73.9887,10002,82
Pizza Hut,3,40.79838,-73.9406,10029,82
Pizza Hut Inside Target,2,40.71424,-74.00642,11373,82
Wonder Fried Chicken & Pizza,3,40.79904,-73.9522,10026,82
99 Cents Hot Pizza,4,40.6888099,-73.98329,11217,83
Armando's Tuscan Grill 2,3,40.8448497,-73.9804906,7024,83
High Line Garden,5,40.75082105,-74.00225937,10001,83
Hop House Harlem,4,40.80682,-73.9534,10026,83
Sam's Pizza,3.5,40.69061,-73.9571,11205,83
Acna Pizza Corporation,4,40.7866592,-73.9501877,10029,84
Chicago Pizza,5,40.83131111,-73.99285559,7657,84
Fat Sam's Pizza,3.5,40.6693611,-73.9064331,11212,84
Fontana Restaurant,3.5,40.682579,-74.1028519,7002,84
Garden Pizza Ice Cream & Cafe,3.5,40.84175,-74.10093,7072,84
Marta,4,40.7445882,-73.9847936,10016,84
Proto's Pizza,4,40.7253494,-73.9897385,10003,84
Singas Famous Pizza,3,40.71088,-73.95069,11211,84
Tommy's Grill & Pizzeria,2.5,40.83309,-73.94508,10032,84
Abruzzi Pizza,5,40.76028017,-73.99154311,10036,85
Artichoke Basille's Pizza,3.5,40.7299881,-74.0007477,10012,85
Flaco's Pizza,3,40.8368459,-73.9425077,10032,85
Kesté - Williamsburg,4.5,40.7192686,-73.9530651,11211,85
Trattoria Spaghetto,4,40.7300911,-74.0025482,10014,85
FlorenZia Pizzeria,2,40.848362,-74.0813522,7075,86
Joey Pepperoni's Pizza,3.5,40.7409782,-73.9790421,10016,86
Aumm Aumm Pizzeria & Wine Bar,4.5,40.79789,-74.00231,7047,87
Broadway Fried Chicken & Pizza,1,40.701889,-73.9434128,11206,87
Roman Nose,3.5,40.7200279,-74.0433197,7302,87
Jersey Pizza Co,4.5,40.84706432,-74.08248011,7075,88
Little Italy Pizza,4.5,40.79187519,-73.97355415,10025,88
My Daddy's Pizza,3,40.7508583,-73.9866562,10018,88
My Little Pizzeria,4,40.69023,-73.99227,11201,88
Pacific Pizza,3,40.7115593,-74.0627289,7304,88
Johnny Favorites Pizza,4,40.72328,-73.98278,10009,89
Little Italy Pizza,3,40.73478317,-73.99224091,10003,89
Mangia Bene,1,40.74704,-74.0479,7307,89
Rossetti's Pizza,2.5,40.7237776,-74.0045619,10013,89
Salvo's Pizzabar,4,40.77085114,-73.95092773,10075,89
Saraghina,4,40.6835063,-73.9352006,11233,89
Uptown Pizzeria,3,40.75332,-74.0253199,7030,89
Dona Bella Pizza,3,40.7151444,-74.0080027,10007,90
Gino's Cucina & Brick Oven Pizza,2.5,40.6753037,-73.9632719,11238,90
Pizza Plus,2,40.76265,-73.98996,10019,90
Cafe Daniello's,3,40.758768,-73.965332,10022,91
Milano's Pizzeria,1,40.7262115,-74.0765762,7306,91
Screamer's Pizzeria,4.5,40.72361,-73.95043,11222,91
V & T Pizzeria & Restaurant,3,40.80334,-73.96383,10025,91
99 Cent Famous Pizza,4,40.7310257,-73.98188782,10009,92
Gino's Pizza,3.5,40.7752495,-73.9513016,10028,92
Trattoria La Sorrentina,4.5,40.80174,-74.00698,7047,92
Casa Theodoro,4.5,40.7568664,-73.9070743,11377,93
Mama Carmela's,4,40.7602759,-73.9076087,11377,93
Mama Leona Pizzeria & Italian Restaurant,3,40.74347,-74.05129,7307,93
Villa Pizza,4,40.7414824,-74.0601527,7306,93
IPizzaNY,3,40.76265,-73.98996,10019,94
NY Pizza Suprema,4,40.75015,-73.99518,10001,94
Papou's Pizza,2.5,40.73978,-73.98579,10010,94
Cafe Rustico II,4,40.74976,-73.98536,10001,95
Sapranos Pizza,1,40.7305946,-74.0615005,7306,95
Farinella,3.5,40.7747688,-73.9592133,10075,96
New York City Pizza Palace,2,40.72881,-73.98775,10003,96
Tre Sorelle,3.5,40.7147255,-74.0063324,10007,96
Vinny Vincenz,3.5,40.73113,-73.98296,10003,96
Domino's Pizza,2,40.6654592,-73.9895984,11215,97
Emilia's Pizza & Authentic Mexican Food,4.5,40.7662621,-73.9150543,11103,97
Chuck E Cheese,3.5,40.7210423,-74.0929029,7304,99
Double Zero,4,40.7260673,-73.9897073,10003,99
Holesome Bagels,4,40.6678,-73.9421,11213,99
Hot House Pizza,4,40.7405434,-74.0400772,7030,99
Uno Pizzeria & Grill,2.5,40.7831047,-73.9748572,10024,99
Valentino's Pizza,2,40.82002,-74.00796,7022,99
Caesar's Palace Pizza,3.5,40.7861404,-73.9759293,10024,100
Uno Pizzeria & Grill,3,40.77830153,-73.95329152,10028,100
Papa Sal's Pizza,4,40.745328,-73.9033515,11377,102
Princess Pizza,3,40.6798286,-74.0836182,7302,102
Denino's Greenwich Village,4,40.7294,-74.00111,10012,103
225 Bistro,2.5,40.711776,-74.008627,10007,104
Mario's Hamburger & Pizza Place,3,40.834355,-73.9411191,10032,104
Market Cafe,3.5,40.75197811,-73.97524401,10017,104
Nick's Pizza,4,40.8030737,-74.0122515,7047,104
Nino's 46,4,40.7569159,-73.980516,10036,104
Famous Famiglia Pizzeria,3.5,40.7878304,-73.9539108,10029,105
Famous Famiglia Pizzeria,3,40.8047916,-73.9665391,10025,105
Harlem Brothers Pizza & Wings,2,40.82361821,-73.94427203,10039,105
Emmett's,4,40.727303,-74.00243,10012,106
Fiesta Deli,5,40.741909,-73.9191208,11377,107
La Piazza,4,40.742196,-73.989905,10010,107
Papa John's Pizzac,1,40.757061,-73.9297485,11106,107
Papa Johns,2,40.8293315,-73.9279075,10451,107
Famous Famiglia Pizzeria,3,40.7939999,-73.97064,10025,108
Tomato-N-Basil Pizza,3.5,40.67736,-73.98348,11215,108
Imperial Pizza,5,40.7440987,-73.9785919,10016,109
Imperial Pizza,1,40.75264509,-73.99985035,10001,109
Sbarro,2,40.750098,-73.9902133,10001,109
Barboncino,4.5,40.67206,-73.95717,11238,111
Little Luzzo's,3.5,40.786342,-73.951553,10128,111
Papa John's Pizza,1.5,40.7915916,-73.9390411,10029,111
Chuck E Cheese's,3,40.7533941,-73.9145504,11101,113
Gar's Pizzeria,1,40.81806,-73.9167,10455,114
Pizza Shack,3.5,40.7143,-73.98172,10002,114
Mario's Pizzeria,3,40.6893845,-73.9704971,11205,115
Bagels and,3.5,40.76921,-73.95162,10021,116
Little Caesars Pizza,3,40.7485799,-74.04717,7307,116
Amalfi Pizzeria,2,40.7443314,-74.0442657,7307,117
Lisbon Pizza,4,40.7166,-74.03899,7302,117
Pizza Club,4,40.81879906,-73.97690378,7020,117
Baci & Abbracci,4,40.7139,-73.96045,11211,118
Brickhouse Pizzeria,3.5,40.71157405,-73.96300607,11211,118
Birreria Roma,5,40.7313644,-74.0028304,10014,119
Prince Pizza,2,40.7593231,-73.9704895,10022,119
Eleven B,3.5,40.7274,-73.97966,10009,120
Singas Famous Pizza,2.5,40.7236199,-73.97893,10009,120
Pizza Express,4,40.6899414,-73.9233093,11221,121
Pizza Gallery,2,40.80984,-73.99035,7020,121
Pizza & Bagel on 3rd,3.5,40.66439,-73.99674,11232,122
Pizza & Pasta,2,40.8435783,-73.9124069,10452,122
Villa Mia Pizza,3.5,40.6694983,-73.992818,11215,122
Bread And Salt Bakery,4,40.6774542,-73.9571563,11238,123
Little Caesars,4,40.6496315,-74.0059662,11232,123
Pranzo,4,40.703269,-74.01080278,10004,124
Cacio E Vino,3.5,40.726384,-73.988873,10003,125
Empire Pizza,3,40.7470799,-73.98579,10001,125
La Belleza Pizza,3,40.71557533,-74.00527653,10007,125
Lean Crust,4,40.6867,-73.97504,11217,125
Salt & Pepper,3,40.7498789,-73.9900547,10001,125
Via Vai,4.5,40.7741411,-73.91247885,11105,125
Chubby Burgers Chicken and Pizza,2.5,40.7719231,-73.9257431,11102,126
Liberty Pizzeria,3.5,40.69334,-73.96604,11205,126
Prince of Pizza,3,40.72559022,-74.06807034,7306,126
Gaudio's Pizzeria & Restaurant,3,40.7637919,-73.9143362,11103,127
Basile Pizza,4,40.78016265,-73.94973736,10128,128
Bella Napoli,3.5,40.7451099,-73.99471,10001,128
Gotham Pizza,3.5,40.7775688,-73.9492188,10028,128
Grand Pizza,3,40.71177,-73.94134,11211,128
Lunetta Pizza,3.5,40.76245,-73.95969,10065,128
Rio Market,4,40.75609,-73.92828,11106,128
Uno Pizzeria & Grill,3,40.7558999,-73.92309,11101,128
Cafe Cosina,5,40.83898859,-73.91838335,10452,129
Frank's Trattoria,3.5,40.73612,-73.979473,10010,129
Grandma's Pizza,2.5,40.8515167,-73.9281998,10033,129
Henry's Pizza,3,40.6991692,-73.9130478,11237,129
Previti Pizza,4,40.75093803,-73.97678798,10168,129
Fluffy's Cafe & Pizzeria,3.5,40.76843633,-73.98513773,10019,130
Friends Pizza Cafe,2.5,40.66175,-73.98569,11215,131
Porta,3,40.7200699,-74.0437622,7302,131
Tigre Pizza,3.5,40.8445816,-73.9072342,10457,131
Front Street Pizza,3.5,40.70244,-73.98943,11201,132
Joe's Pizza of the Village,3,40.66763,-73.9873999,11215,132
Johnny's Pizzeria & Ristorante,3,40.8480606,-73.9844666,7650,132
99 Cent Fresh Pizza,3.5,40.74572877,-73.97768621,10016,133
Rocco Pizza,3,40.68273,-73.94065,11216,133
Singas Famous Pizza,4,40.7531754,-73.9205345,11101,133
Skillman's Famous Pizza and Coffee Shop,3.5,40.7462692,-73.9177399,11104,133
Little Caesars,2,40.6990013,-73.9108276,11237,135
Gandolfo Pizzeria & Restaurant,4,40.79953,-74.00864,7047,136
Four Brothers Restaurant & Pizzeria,4.5,40.7207489,-74.0817566,7304,137
Arome Deli & Pizzeria,3,40.749,-73.99028,10001,138
Artichoke Basille's Pizza,3.5,40.7751406,-73.9124042,11105,138
Bona Pizza,2,40.73928519,-74.03020198,7030,138
Bona Pizza,4.5,40.8178399,-73.90583,10455,138
Alba's Pizza & Restaurant,4,40.7739334,-73.9075721,11105,139
Jerusalem Cafe,2.5,40.75057,-73.98536,10018,139
Macchina,4,40.80101,-73.9675199,10025,139
Bella Serra Pizza,4,40.70015,-73.90415,11385,140
Bene Restaurant & Pizzeria,3,40.65489,-73.97351,11218,140
Bravo Pizza,3,40.7531769,-73.9805117,10017,140
Margherita's Pizzeria,3.5,40.7453232,-74.0286713,7030,140
Margot's Pizza,5,40.6835518,-73.9664001,11238,140
Mister Gusto,1.5,40.73024,-74.0655699,7306,140
Z Pizza,4,40.732804,-74.003778,11430,140
Grimaldi's,4,40.7415886,-74.0294342,7030,142
John & Tony's Trattoria Caffe,3,40.76043556,-73.96162256,10021,142
John's Of Bleecker Street,4,40.73158,-74.00332,10014,142
Scarr's Pizza,4,40.71534,-73.9914,10002,142
Graziella's,4,40.69046,-73.96963,11205,143
Papa John's Pizza,1.5,40.7804794,-73.9496155,10128,143
Armando's Pizza,3.5,40.6835403,-73.9111862,11207,144
Oxford Cafe,2.5,40.75751179,-73.97131006,10022,144
Two Boots,4,40.6742098,-73.9824143,11215,144
Bella Roma,3.5,40.75820334,-73.962482,10022,145
Zakaria's Pizza & Grill,3,40.7340698,-74.0718613,7306,145
Famous Original Ray's Pizza,2,40.76432,-73.9664899,10021,146
Koronet Pizza,3.5,40.80447,-73.96616,10025,146
Naples Ristorante E Pizzeria,2.5,40.7531245,-73.9778371,10166,148
Papa John's Pizza,2.5,40.82947,-73.98639,7010,148
Pizza Superstar,4,40.68192,-73.97633,11217,148
Rizzo's Fine Pizza,4,40.76335,-73.91516,11103,148
San Matteo Pizzeria e Cucina,4,40.7746799,-73.95443,10028,148
Luna's Pizzeria & Restaurant,5,40.76036352,-74.03716715,7087,149
Papa John's Pizza,2,40.75706,-73.92975,11106,149
Domino's Pizza,1.5,40.71969,-74.07908,7304,151
New York Sal's Pizza,3,40.76372528,-73.99211121,10019,151
Carmine's Pizzeria,4,40.71499,-73.94414,11211,152
Domino's Pizza,2.5,40.721837,-74.04719,7302,153
Domino's Pizza,1.5,40.8278351,-74.1011658,7070,153
Sbarro,2.5,40.733113,-73.997687,10001,153
Williamsburg Pizza,4,40.718221,-73.99123,10002,154
NY Fresh Pizza,3.5,40.7651482,-73.9881363,10019,155
Pronto Pizza 28 Street,3,40.7353,-73.99233,10003,155
Williamsburg Pizza - Brooklyn,3,40.70814416,-73.95081079,11211,155
Pizza Paradise,3.5,40.73891,-73.99298,10011,156
Solo Pizza,4,40.72241,-73.98302,10009,156
Big Daddy's Pizza,5,40.6742554,-74.007019,11231,157
Papa John's Pizza,2.5,40.7303314,-73.9829636,10009,157
Pizza Hut,2.5,40.7202588,-74.0938843,7302,157
Z Deli Pizzeria,3.5,40.7614782,-73.9868341,10019,157
99 Cent Fresh Pizza,3.5,40.753746,-73.9741516,10017,159
Mondo Piatta,3,40.73471,-73.98582,10003,159
Pizza Plus,4,40.6659099,-73.98222,11215,159
Buchetta Brick Oven Pizza,4,40.7987564,-73.9673846,10025,161
Pizza Meter,4,40.754396,-74.0483,7087,162
Tappo Thin Crust Pizza,4,40.74337,-73.99153,10010,162
AOA Bar & Grill,3,40.72068785,-74.00544055,10013,163
Champion Pizza,4,40.719742,-73.9872791,10002,163
Il Forno,3,40.73596,-73.98254,10003,163
Zeff's Pizzeria,3.5,40.70961,-73.9548499,11211,163
Famous Amadeus Pizza,3,40.74979,-73.99481,10001,165
Tre Giovani,3.5,40.7290382,-73.9983215,10012,165
Basile's Pizza & Catering,3.5,40.85123,-74.08519,7075,166
Cafe 37,3.5,40.75141,-73.9854299,10018,166
Slice Of NY Pizza,1,40.75867844,-73.98628998,10036,166
Pizza Italia,4,40.74198898,-74.00194583,10011,167
Slice Pizza Of Amsterdam,4,40.841475,-73.936144,10032,167
Little Caesars,3,40.8464088,-73.935463,10033,168
New York Fried Chicken,5,40.68310428,-73.91735304,11233,169
Eden,3,40.7175156,-73.9575011,11211,170
Lemast Deli & Pizza,2,40.72086,-73.99741,10013,171
Pizza Hut,1.5,40.7742081,-74.034547,7047,171
Sbarro,2.5,40.76061722,-73.98440926,10019,171
Broadway Pizza & Fried Chicken,5,40.68725,-73.91861,11221,172
Cafe 31 Sports Bar & Grill,3.5,40.7493139,-73.9929231,10001,172
The Catalina,4.5,40.7613615,-73.990708,10036,172
Famous Famiglia,3,40.8416979,-73.93907073,10032,173
Flaming Pizza,2,40.7752953,-74.0198669,7086,173
Gelso & Grand,4,40.71940895,-73.99737779,10013,175
Mezzogiorno,4,40.80285,-73.96798,10025,175
Beach Cafe,3,40.7672686,-73.9592185,10021,176
American Beauty,4.5,40.74938,-73.9943399,10001,177
Singas Famous Pizza,3.5,40.73605,-74.06678,7306,177
Sloppy Joe's Pizza,3,40.7149506,-74.0753937,7304,177
Papa John's Pizza,1,40.7747078,-74.031189,7087,178
Tony's Pizza On Nostrand,3.5,40.6688211,-73.95079529,11225,178
Daniello's Pizzeria,3,40.79187861,-73.96797832,10025,179
Danny's Pizza & Deli,1.5,40.83574,-74.08832,7072,179
Domino's Pizza,2,40.6840286,-74.1017227,7002,179
Abitino's Pizzeria,3,40.7547,-73.98696,10018,180
Gruppo,4.5,40.7246919,-73.9815485,10009,180
The Sicilian,3,40.6598479,-73.980485,11215,180
Pronto Pizza,4,40.6893883,-73.9923401,11201,181
2 Bros Pizza,3.5,40.75695,-73.9935,10018,183
Razza Pizza Artigianale,4,40.71774905,-74.04419244,7302,183
Roberta's,4,40.70504353,-73.93357123,11206,183
2 Bros Pizza,3.5,40.73102256,-74.00171566,10014,185
Angeloni's Restaurant & Pizzeria,3.5,40.8490899,-74.0866999,7075,185
Crown Fried Chicken & Pizza,1,40.6710281,-73.9312134,11213,185
Famous Original Ray's Pizza,3,40.74597,-74.0013,10011,186
Sutton Pizzeria,4,40.76173071,-73.96029755,10065,187
Two Boots,3.5,40.72307,-73.98415,10009,187
Hugo & Sons,3.5,40.66573,-73.98238,11215,188
Liberatos Pizza,3.5,40.70696,-74.00794,10038,188
Pizza Corner Restaurant,4.5,40.8243,-73.98896,7010,188
Underground Pizza,4,40.70499,-74.00961,10004,189
Wined Up Bar & Grill,4,40.7396698,-73.9899368,10010,190
Leo & Son Pizzeria,1,40.70843,-73.9583,11211,191
Sam's,3.5,40.68588,-73.99437,11201,191
Yankee Pizza,3.5,40.82711,-73.92451,10451,194
Fontanini's Pizzeria and Turkish Grill,2,40.7519417,-74.0535507,7307,195
Subway,3,40.72605,-74.0379899,7310,196
Vincent's Pizza,2.5,40.69919,-74.09508,7305,196
Xpress Deli Pizza & Convenience Store,3,40.72305,-73.98965,10002,196
2 Bros Pizza Plus,3.5,40.73960116,-73.99521668,10010,197
Angelica Pizzeria & Restaurant,2.5,40.68784,-73.9816,11217,197
Frank's Pizza,3.5,40.73979,-73.98499,10010,197
Sbarro,3,40.7488518,-73.9864426,10001,197
Domino's Pizza,1.5,40.75611838,-74.04642712,7307,199
Margherita NYC,4.5,40.7189713,-73.996933,10013,199
Lebeleca Pizza,3.5,40.7546806,-73.9880829,10018,201
Nonna Lena's Trattoria,5,40.7684261,-73.9091913,11105,202
Delfino's Pizzeria,3.5,40.74364,-74.03704,7030,203
Evil Olive Pizza Bar,4,40.706295,-73.9501648,11211,203
Famous Famiglia Pizzeria,3.5,40.713615,-74.00877,10007,203
Gina's Pizzeria,3,40.6510315,-74.0039597,11232,203
Emporio,4,40.7226371,-73.9951331,10012,204
Astoria Craft,4.5,40.77332,-73.92715,11102,205
Pizza By Certé,4,40.76037261,-73.97011854,10022,205
Benny Tudino's Pizzeria,3.5,40.74422,-74.02915,7030,206
Oui Oui Crepes and Pizza,3.5,40.81024707,-73.9491326,10027,208
Rossopomodoro,3.5,40.73847636,-74.0020936,10011,208
S & S Calabro Pizzeria,4,40.7692719,-73.9309845,11102,208
Wild,3,40.73474,-74.00632,10014,208
Harry's Italian Pizza Bar,3.5,40.75909701,-73.97899162,10112,209
Al Forno Pizzeria,3.5,40.772102,-73.955597,10075,210
Antonetti's Pizza,3,40.699194,-73.9130376,11237,211
Holy Moly,3.5,40.67372,-73.96065,11238,211
Joe's Pizzeria,2.5,40.7565384,-73.9293365,11106,211
Nova Pizza & Pasta,4,40.8491516,-73.9708862,7024,212
Prince Pizza,3.5,40.7237277,-73.9504086,11222,212
Highline Pizza,4,40.751049,-74.0020523,10001,213
Tiny's Pizza-N-Pasta,3,40.83104,-73.91661,10456,215
Summit Pizza,3,40.7603607,-74.0427475,7087,217
Mister Pizza Lizette Dollar Pizza,1,40.81888894,-73.92777979,10451,218
American Cheez,4.5,40.6631983,-73.9846852,11215,219
Bertucci's,3,40.72845742,-74.0340737,7310,221
Sacco Pizza,4,40.76623,-73.98717,10019,221
Little Caesars Pizza,3.5,40.792018,-73.94424054,10029,224
P&M Classic Pizza & Restaurant,3.5,40.8262239,-73.9466905,10031,225
Papa John's Pizza,1,40.6652,-73.92262,11212,226
Sbarro,2,40.76061722,-73.98440926,10036,226
Giuseppe's Pizza,3.5,40.74974,-73.97712,10016,227
Joe's Pizza,4,40.7305599,-74.0021299,10014,227
Little Italy Pizza,3,40.70810418,-74.0046898,10038,227
Baker's Pizza,4.5,40.7294399,-73.98125,10009,228
Vite Vinosteria,4,40.7608604,-73.9227753,11106,229
99 Cent Fresh Pizza,2.5,40.7194061,-73.9897385,10002,230
Bklyn Pizza,3.5,40.68903,-73.92408,11221,232
Chicken Bar & Pizza,3.5,40.7329999,-73.99836,10011,232
Wild Brooklyn,3,40.7128384,-73.9626364,11249,238
Krazy Chicken and Pizza,2.5,40.6818199,-73.9287033,11233,239
Marco Polo Pizza Cafe,3,40.78437487,-73.9559989,10128,240
Santa Maria Restaurant and Brick Oven Pizzeria,3.5,40.728824,-74.062179,7306,241
Cavallo's Pizzeria,2.5,40.7473967,-73.993243,10001,242
Archie's Bar & Pizza,4.5,40.69981,-73.92842,11221,243
Vinnie's Pizzeria,4,40.72609,-73.94188,11222,243
Fulton Fried Chicken Inc,2.5,40.6897888,-73.9826965,11201,244
Vidali's Pizza,3,40.7671265,-73.9300363,11106,245
Caruso Pizzeria &  Restaurant,3,40.68661,-73.99069,11201,246
Cafe Bonjour Deli & Pizza,3.5,40.751181,-73.983842,10018,247
Broadway Pizzeria & Coffee Shop,5,40.8517342,-73.9347534,10033,252
Pizza Cucina of Ridgewood,4,40.70833717,-73.91957167,11385,254
Famous Original Ray's Pizza,2,40.7221718,-73.9853516,10002,255
Antonio's Pizzeria,3.5,40.69296574,-73.99104621,11201,257
Belmora Pizza & Restaurant,2.5,40.7609901,-73.9688568,10022,257
Ignazio's Pizza,3,40.70294,-73.99418,11201,257
Jiannetto's Pizza Truck,4,40.75527,-73.9752199,10017,261
Gaslight Pizzeria,2.5,40.7407626,-74.0057365,10014,262
Pizza Di Napoli,3.5,40.70104,-73.94107,11206,265
Wholesome Garden Pizza,2.5,40.82605422,-73.95085749,10031,267
El Guapo Pizzeria Incorporated,2,40.8097992,-73.9238129,10454,268
Pizza Chef,3,40.67978,-73.94041,11216,268
Tulema Pizzeria & Restaurant,5,40.78051706,-74.01893903,7087,269
Blinks Deli & Pizzeria,2,40.7459569,-73.9291617,11101,271
Antika Restaurant & Pizzeria,3.5,40.838606,-73.941041,10032,273
Delizia 92 Restaurant & Pizza,3.5,40.7815299,-73.94886,10128,273
Pizza King,3,40.7463188,-73.9803238,10016,273
Majestic Pizza,3.5,40.7100235,-74.0101362,10007,275
De Palma Pizzeria & Ristorante,3.5,40.76353,-74.03315,7087,278
Luv-N-Oven Pizza,3,40.68969,-73.97758,11217,278
Norbert's Express,3.5,40.69658,-73.935051,11221,279
Via Caramico,5,40.75174176,-73.93077371,11101,280
Sido Gourmet,3,40.75217,-73.97073,10017,281
Silvana's Restaurant & Catering,3,40.84636443,-74.03912876,7643,283
Rivoli Pizza II,3,40.7333039,-74.006004,10014,285
Gee's Pizzeria and Breakfast,4.5,40.6903992,-73.9308472,11221,286
Nick's Pizza,4,40.78279,-73.94794,10128,290
Sergio's Pizza,1.5,40.7388514,-73.9996932,10011,290
Angelos's Pizzeria & Restaurant,4.5,40.81056,-74.00079,7022,292
Sabrina's Pizzeria & Restaurant,4,40.70837,-73.95833,11211,292
Bosco's Pizza,4,40.6927523,-73.9403617,11221,293
Famous Famiglia,3,40.76569739,-73.9573263,10021,293
FDR 99 Cents Slice Pizza,3,40.7229919,-73.9854279,10009,293
2 Bros Pizza,4,40.72878,-73.98841,10003,296
Rocco's Pizza and Pasta,3.5,40.6881599,-73.9444733,11216,298
Xochil Pizzeria,4,40.6469002,-74.0080414,11220,300
Pizza Hut,2.5,40.7215576,-74.0925827,7304,308
Giovanni's Pizza,3,40.8012591,-73.9612141,10025,313
House of Pizza & Calzones,4,40.68403,-74.00222,11231,315
Vinnie's Pizzeria & Restaurant,3,40.7490331,-74.0557161,7307,315
Pizza Plus A Whole Lot More!,2.5,40.8019829,-73.9368648,10035,317
Numero 28 Pizzeria,4,40.67296427,-73.97647634,11215,318
Numero 28 Pizzeria & Cucina,4,40.68683493,-73.99077465,11201,318
Casabianca Pizzeria,3,40.76944,-73.9889,10019,323
Muzzarella Pizza,3.5,40.73021,-73.98069,10009,326
Nonna's LES Pizzeria,4,40.71823,-73.98582,10002,333
Two Boots Hell's Kitchen,3.5,40.75998,-73.9918299,10036,335
Friendly Deli and Pizza,3,40.7003119,-73.9470676,11206,338
Fresh Pizza,3,40.75843,-73.99265,10036,339
Healthy Choice Gourmet Deli Pizza,3,40.74789,-73.99267,10001,342
Ben's Pizzeria,3.5,40.7303,-74.00036,10012,345
Sotto 13,4,40.737285,-73.9991333,10011,345
Sottocasa Pizzeria - Harlem,4.5,40.8055499,-73.94746,10027,345
Vinnie's Pizzeria,4,40.71888,-73.95678,11211,346
BBQ Chicken,3,40.8519273,-73.9940823,7650,347
Papa John's Pizza,2,40.7497406,-73.9823608,10016,352
Sid Gold's Request Room,4.5,40.74586,-73.99366,10001,353
Big Nick's Burger & Pizza Joint Too,3,40.77653636,-73.97911172,10023,358
Tony's Pizza,1,40.74771,-73.98897,10001,360
Sunnyside Pizza,4,40.74383805,-73.92412663,11104,363
Pizza Cotta Bene,4,40.676826,-73.986221,11215,368
Pizza Boy II,3.5,40.7456249,-73.905564,11377,378
Neapolitan Express,3.5,40.79412404,-73.94114297,10029,379
Little Caesars,2,40.65109956,-73.94939532,11226,381
Kesté,4,40.73154,-74.00293,10014,390
David's Pizzeria Restaurant,2.5,40.6976204,-73.9354324,11206,394
Papa Johns-Subway,2,40.7896,-73.97385,10024,397
Ovest Pizzoteca,4,40.7507499,-74.00303,10001,403
Tommy's Pizza,4,40.8477204,-73.9381616,10033,411
Sal's Pizzeria,3,40.68361,-73.99514,11231,414
Papa John's Pizza,2.5,40.7167206,-73.9898376,10002,419
Famous Calabria,4,40.708914,-74.003815,10038,424
Veloce Pizza,3,40.76908,-73.92546,11102,426
Imposto's Pizza,2,40.73766,-74.03107,7030,432
My Pizza,3,40.849785,-73.9168998,10453,435
Tom's Delicious Pizza,3.5,40.8149832,-73.9591477,10027,435
Tony's Pizzeria & Restaurant,4.5,40.699286,-73.918724,11237,436
Russ Pizza,4,40.7264595,-73.9524384,11222,450
Sal's Pizzeria,3.5,40.71322,-73.94911,11211,451
2 Baci Pizzeria,3,40.68648288,-73.95066922,11216,457
Slice & Co,3.5,40.7295189,-74.0011292,10012,471
Mr Bruno's Pizza & Beyond,3.5,40.83143193,-74.09209491,7073,473
Sanza Pizza,4,40.71147,-73.95777,11211,475
Best Pizza On 1st Avenue,3.5,40.7579966,-73.9629148,10022,477
Pizza Hut,1,40.66876,-73.91789,11212,478
Rizzo's Fine Pizza,4.5,40.720852,-73.984456,10002,500
Angelo's Pizzeria,3.5,40.7230828,-73.9125217,11378,507
Roberta's Pizza At Broadway Bites,3.5,40.7501106,-73.9899979,10001,508
Friendly Gourmet Pizza,4,40.7092934,-74.0088501,10038,509
Bagels & Co,3.5,40.78288,-73.97829,10024,510
Two Boots Upper East Side,3,40.7764882,-73.9529314,10028,520
Astoria Pizza,3.5,40.7662199,-73.92055,11102,524
Crown Fried Chicken & Pizza,2.5,40.7028313,-73.9074478,11385,530
Capizzi,4,40.7574196,-73.9935608,10018,532
Pizza Diego,5,40.777401,-73.9644012,10075,538
Lake Como Pizza,2.5,40.85137,-73.92828,10033,545
2 Bros Pizza,3,40.68933868,-73.980896,11201,546
Famous Famiglia Pizzeria,3,40.73087,-73.9923699,10010,553
Papi's Pizzeria,3.5,40.8493347,-73.9335098,10033,563
Carval Pizzeria,3.5,40.7927399,-73.9504395,10029,569
Arturo's,4,40.72735633,-74.00049448,10012,589
Pizza Da Solo,3.5,40.761239,-73.97312,10022,591
Toby's Public House,4,40.66019,-73.9912499,11215,595
Spunto,4,40.7297584,-74.0046303,10014,627
Il Corallo Trattoria,4,40.7262073,-74.0018919,10012,645
Ray Bari Pizza of E 76 Street,2.5,40.7725099,-73.95882,10021,645
Bartolino's Fine Italian Pizza,4.5,40.76073861,-73.9223789,11106,647
Jimmys Pizza Shop,3,40.69139956,-73.90907169,11207,669
Pala,4,40.7224345,-73.9885001,10002,691
Little Tonino's Pizzeria Cafe,3,40.65072,-73.97706,11218,725
Champion Pizza,4.5,40.72158,-73.99724,10012,750
Roll & Go $1 Pizza,4,40.6802652,-73.9497275,11216,838
East Village Pizza & Kebabs,3.5,40.72823,-73.9852499,10003,852
Mamani Pizza,3,40.72762,-73.98258,10009,885
Pizza Gaga,3.5,40.7438393,-73.9946747,10011,909
Nic and Dora's Sandwich Shop,4,40.7421142,-73.98360293,10016,919
Mark's Pizza,4,40.6788288,-74.0113214,11231,946
Astoria Park Pizzeria,4,40.7808503,-73.9169041,11105,1048
Pizza Express,3.5,40.7417885,-74.0601592,7306,1058
Serafina Broadway,3.5,40.7645,-73.9819,10019,1065
Alex's Italian Restaurant & Brick Oven Pizza,4,40.72046659,-74.04283325,7302,1096
La Margarita Pizza,4.5,40.72088,-73.98821,10002,1121
Papa John's Pizza,3,40.79361,-74.01239,7093,1123
L'inizio Pizza Bar,3.5,40.74491426,-73.95327649,11101,1151
Kiss My Slice,4,40.7545319,-73.9925232,10018,1360
kono pizza,4,40.72605,-74.0379899,7310,1403
Bombay Fast Food,3,40.7522,-73.98635,10018,1447
K Pizza,3.5,40.842018,-74.000809,7650,1470
Keni's Chicken and Pizza,2.5,40.76359,-73.98866,10019,1471
Papa John's Pizza,3.5,40.82484109,-73.94762613,10031,1858
Sal's Pizzeria,3.5,40.70447,-73.91925,11237,1930
Artichoke Basille's Pizza & Bar,3.5,40.74403,-74.0064087,10011,3272
III L's Pizzeria,2,40.7157402,-74.0053787,10007,3978
Mama Sbarro's,3,40.7619705,-73.984993,10019,4952